{"type": "FeatureCollection", "features": [ {"type": "Feature", "properties": {"norad_id": 67143, "name": "KUIPER-00191", "group": "last-30-days", "lat": -43.05275721545889, "lon": 6.273096272037052, "alt_km": 468.9794241939362, "timestamp": "2025-12-27T14:26:29.247009+00:00", "meta": {"OBJECT_NAME": "KUIPER-00191", "OBJECT_ID": "2025-301L", "EPOCH": "2025-12-27T05:19:46.971552", "MEAN_MOTION": 15.35219059, "ECCENTRICITY": 0.00067647, "INCLINATION": 51.8677, "RA_OF_ASC_NODE": 55.3187, "ARG_OF_PERICENTER": 135.8074, "MEAN_ANOMALY": 224.3453, "EPHEMERIS_TYPE": 0, "CLASSIFICATION_TYPE": "U", "NORAD_CAT_ID": 67143, "ELEMENT_SET_NO": 999, "REV_AT_EPOCH": 262, "BSTAR": 0.0009070808, "MEAN_MOTION_DOT": 0.00031256, "MEAN_MOTION_DDOT": 0}, "tle": {"line1": "1 67143U 25301L   25361.22207143  .00031256  00000+0  90708-3 0  9993", "line2": "2 67143  51.8677  55.3187 0006764 135.8074 224.3453 15.35219059  2620"}}, "geometry": {"type": "Point", "coordinates": [6.273096272037052, -43.05275721545889]}}, {"type": "Feature", "properties": {"norad_id": 67144, "name": "KUIPER-00196", "group": "last-30-days", "lat": -18.726181706664907, "lon": 37.970570050199115, "alt_km": 462.53366707105033, "timestamp": "2025-12-27T14:26:29.247019+00:00", "meta": {"OBJECT_NAME": "KUIPER-00196", "OBJECT_ID": "2025-301M", "EPOCH": "2025-12-27T06:44:19.830912", "MEAN_MOTION": 15.36061213, "ECCENTRICITY": 0.00039612, "INCLINATION": 51.874, "RA_OF_ASC_NODE": 54.9606, "ARG_OF_PERICENTER": 110.8141, "MEAN_ANOMALY": 249.327, "EPHEMERIS_TYPE": 0, "CLASSIFICATION_TYPE": "U", "NORAD_CAT_ID": 67144, "ELEMENT_SET_NO": 999, "REV_AT_EPOCH": 260, "BSTAR": 0.00020687636, "MEAN_MOTION_DOT": 7e-05, "MEAN_MOTION_DDOT": 0}, "tle": {"line1": "1 67144U 25301M   25361.28078508  .00007000  00000+0  20688-3 0  9991", "line2": "2 67144  51.8740  54.9606 0003961 110.8141 249.3270 15.36061213  2607"}}, "geometry": {"type": "Point", "coordinates": [37.970570050199115, -18.726181706664907]}}, {"type": "Feature", "properties": {"norad_id": 67145, "name": "KUIPER-00204", "group": "last-30-days", "lat": -2.5308563894606775, "lon": 51.371694891294844, "alt_km": 457.0432273614124, "timestamp": "2025-12-27T14:26:29.247029+00:00", "meta": {"OBJECT_NAME": "KUIPER-00204", "OBJECT_ID": "2025-301N", "EPOCH": "2025-12-27T06:39:03.248352", "MEAN_MOTION": 15.36585089, "ECCENTRICITY": 0.0002099, "INCLINATION": 51.8746, "RA_OF_ASC_NODE": 54.9294, "ARG_OF_PERICENTER": 76.6318, "MEAN_ANOMALY": 283.4902, "EPHEMERIS_TYPE": 0, "CLASSIFICATION_TYPE": "U", "NORAD_CAT_ID": 67145, "ELEMENT_SET_NO": 999, "REV_AT_EPOCH": 271, "BSTAR": 0.00046477641, "MEAN_MOTION_DOT": 0.00016507, "MEAN_MOTION_DDOT": 0}, "tle": {"line1": "1 67145U 25301N   25361.27712093  .00016507  00000+0  46478-3 0  9992", "line2": "2 67145  51.8746  54.9294 0002099  76.6318 283.4902 15.36585089  2718"}}, "geometry": {"type": "Point", "coordinates": [51.371694891294844, -2.5308563894606775]}}, {"type": "Feature", "properties": {"norad_id": 67146, "name": "KUIPER-00210", "group": "last-30-days", "lat": -50.48391692966486, "lon": -54.13098472068415, "alt_km": 469.46553196181685, "timestamp": "2025-12-27T14:26:29.247041+00:00", "meta": {"OBJECT_NAME": "KUIPER-00210", "OBJECT_ID": "2025-301P", "EPOCH": "2025-12-27T05:30:08.171136", "MEAN_MOTION": 15.34235315, "ECCENTRICITY": 0.00105719, "INCLINATION": 51.8607, "RA_OF_ASC_NODE": 55.3628, "ARG_OF_PERICENTER": 153.5483, "MEAN_ANOMALY": 206.6044, "EPHEMERIS_TYPE": 0, "CLASSIFICATION_TYPE": "U", "NORAD_CAT_ID": 67146, "ELEMENT_SET_NO": 999, "REV_AT_EPOCH": 276, "BSTAR": 0.0010592672, "MEAN_MOTION_DOT": 0.00035483, "MEAN_MOTION_DDOT": 0}, "tle": {"line1": "1 67146U 25301P   25361.22926124  .00035483  00000+0  10593-2 0  9992", "line2": "2 67146  51.8607  55.3628 0010571 153.5483 206.6044 15.34235315  2764"}}, "geometry": {"type": "Point", "coordinates": [-54.13098472068415, -50.48391692966486]}}, {"type": "Feature", "properties": {"norad_id": 67147, "name": "KUIPER-00221", "group": "last-30-days", "lat": -28.238919972607533, "lon": 28.488608784361595, "alt_km": 465.25843092766536, "timestamp": "2025-12-27T14:26:29.247051+00:00", "meta": {"OBJECT_NAME": "KUIPER-00221", "OBJECT_ID": "2025-301Q", "EPOCH": "2025-12-27T06:47:36.673440", "MEAN_MOTION": 15.35782669, "ECCENTRICITY": 0.00050686, "INCLINATION": 51.8725, "RA_OF_ASC_NODE": 54.9767, "ARG_OF_PERICENTER": 116.3773, "MEAN_ANOMALY": 243.7734, "EPHEMERIS_TYPE": 0, "CLASSIFICATION_TYPE": "U", "NORAD_CAT_ID": 67147, "ELEMENT_SET_NO": 999, "REV_AT_EPOCH": 260, "BSTAR": 0.00063829804, "MEAN_MOTION_DOT": 0.0002225, "MEAN_MOTION_DDOT": 0}, "tle": {"line1": "1 67147U 25301Q   25361.28306335  .00022250  00000+0  63830-3 0  9996", "line2": "2 67147  51.8725  54.9767 0005068 116.3773 243.7734 15.35782669  2600"}}, "geometry": {"type": "Point", "coordinates": [28.488608784361595, -28.238919972607533]}}, {"type": "Feature", "properties": {"norad_id": 67148, "name": "KUIPER-00232", "group": "last-30-days", "lat": 3.0088247132057098, "lon": 55.716776737005425, "alt_km": 455.36638926407704, "timestamp": "2025-12-27T14:26:29.247061+00:00", "meta": {"OBJECT_NAME": "KUIPER-00232", "OBJECT_ID": "2025-301R", "EPOCH": "2025-12-27T06:37:16.302432", "MEAN_MOTION": 15.36747889, "ECCENTRICITY": 0.00016558, "INCLINATION": 51.8745, "RA_OF_ASC_NODE": 54.9256, "ARG_OF_PERICENTER": 55.0515, "MEAN_ANOMALY": 305.0627, "EPHEMERIS_TYPE": 0, "CLASSIFICATION_TYPE": "U", "NORAD_CAT_ID": 67148, "ELEMENT_SET_NO": 999, "REV_AT_EPOCH": 260, "BSTAR": 0.00051752933, "MEAN_MOTION_DOT": 0.00018528, "MEAN_MOTION_DDOT": 0}, "tle": {"line1": "1 67148U 25301R   25361.27588313  .00018528  00000+0  51753-3 0  9998", "line2": "2 67148  51.8745  54.9256 0001655  55.0515 305.0627 15.36747889  2606"}}, "geometry": {"type": "Point", "coordinates": [55.716776737005425, 3.0088247132057098]}}, {"type": "Feature", "properties": {"norad_id": 67149, "name": "KUIPER-00241", "group": "last-30-days", "lat": -12.079528526792046, "lon": 43.71407506594203, "alt_km": 459.92957924425536, "timestamp": "2025-12-27T14:26:29.247071+00:00", "meta": {"OBJECT_NAME": "KUIPER-00241", "OBJECT_ID": "2025-301S", "EPOCH": "2025-12-27T06:42:09.023040", "MEAN_MOTION": 15.36307948, "ECCENTRICITY": 0.00029158, "INCLINATION": 51.8747, "RA_OF_ASC_NODE": 54.9473, "ARG_OF_PERICENTER": 96.2518, "MEAN_ANOMALY": 263.8801, "EPHEMERIS_TYPE": 0, "CLASSIFICATION_TYPE": "U", "NORAD_CAT_ID": 67149, "ELEMENT_SET_NO": 999, "REV_AT_EPOCH": 293, "BSTAR": 0.00093046989, "MEAN_MOTION_DOT": 0.00033211, "MEAN_MOTION_DDOT": 0}, "tle": {"line1": "1 67149U 25301S   25361.27927110  .00033211  00000+0  93047-3 0  9999", "line2": "2 67149  51.8747  54.9473 0002915  96.2518 263.8801 15.36307948  2939"}}, "geometry": {"type": "Point", "coordinates": [43.71407506594203, -12.079528526792046]}}, {"type": "Feature", "properties": {"norad_id": 67150, "name": "KUIPER-00245", "group": "last-30-days", "lat": -30.88512635961588, "lon": 25.424840240632665, "alt_km": 465.96109915274883, "timestamp": "2025-12-27T14:26:29.247081+00:00", "meta": {"OBJECT_NAME": "KUIPER-00245", "OBJECT_ID": "2025-301T", "EPOCH": "2025-12-27T06:48:33.874560", "MEAN_MOTION": 15.35688677, "ECCENTRICITY": 0.00050741, "INCLINATION": 51.8729, "RA_OF_ASC_NODE": 54.9797, "ARG_OF_PERICENTER": 124.8823, "MEAN_ANOMALY": 235.2641, "EPHEMERIS_TYPE": 0, "CLASSIFICATION_TYPE": "U", "NORAD_CAT_ID": 67150, "ELEMENT_SET_NO": 999, "REV_AT_EPOCH": 260, "BSTAR": 0.00064427242, "MEAN_MOTION_DOT": 0.00022394, "MEAN_MOTION_DDOT": 0}, "tle": {"line1": "1 67150U 25301T   25361.28372540  .00022394  00000+0  64427-3 0  9993", "line2": "2 67150  51.8729  54.9797 0005074 124.8823 235.2641 15.35688677  2605"}}, "geometry": {"type": "Point", "coordinates": [25.424840240632665, -30.88512635961588]}}, {"type": "Feature", "properties": {"norad_id": 67151, "name": "KUIPER-00246", "group": "last-30-days", "lat": -21.437635630658992, "lon": 35.45485170325048, "alt_km": 463.35752208600843, "timestamp": "2025-12-27T14:26:29.247091+00:00", "meta": {"OBJECT_NAME": "KUIPER-00246", "OBJECT_ID": "2025-301U", "EPOCH": "2025-12-27T06:45:14.520384", "MEAN_MOTION": 15.35965612, "ECCENTRICITY": 0.00040166, "INCLINATION": 51.8741, "RA_OF_ASC_NODE": 54.9629, "ARG_OF_PERICENTER": 117.6356, "MEAN_ANOMALY": 242.5038, "EPHEMERIS_TYPE": 0, "CLASSIFICATION_TYPE": "U", "NORAD_CAT_ID": 67151, "ELEMENT_SET_NO": 999, "REV_AT_EPOCH": 262, "BSTAR": 0.00069800914, "MEAN_MOTION_DOT": 0.00024517, "MEAN_MOTION_DDOT": 0}, "tle": {"line1": "1 67151U 25301U   25361.28141806  .00024517  00000+0  69801-3 0  9993", "line2": "2 67151  51.8741  54.9629 0004016 117.6356 242.5038 15.35965612  2620"}}, "geometry": {"type": "Point", "coordinates": [35.45485170325048, -21.437635630658992]}}, {"type": "Feature", "properties": {"norad_id": 67152, "name": "KUIPER-00247", "group": "last-30-days", "lat": -48.23856876480732, "lon": -64.77986626931356, "alt_km": 468.68080608301443, "timestamp": "2025-12-27T14:26:29.247106+00:00", "meta": {"OBJECT_NAME": "KUIPER-00247", "OBJECT_ID": "2025-301V", "EPOCH": "2025-12-27T05:31:58.593792", "MEAN_MOTION": 15.34049784, "ECCENTRICITY": 0.00112419, "INCLINATION": 51.8632, "RA_OF_ASC_NODE": 55.372, "ARG_OF_PERICENTER": 156.7034, "MEAN_ANOMALY": 203.4463, "EPHEMERIS_TYPE": 0, "CLASSIFICATION_TYPE": "U", "NORAD_CAT_ID": 67152, "ELEMENT_SET_NO": 999, "REV_AT_EPOCH": 259, "BSTAR": 0.0010043828, "MEAN_MOTION_DOT": 0.00033424, "MEAN_MOTION_DDOT": 0}, "tle": {"line1": "1 67152U 25301V   25361.23053928  .00033424  00000+0  10044-2 0  9997", "line2": "2 67152  51.8632  55.3720 0011241 156.7034 203.4463 15.34049784  2598"}}, "geometry": {"type": "Point", "coordinates": [-64.77986626931356, -48.23856876480732]}}]}